[{"OBJECT_NAME":"STARLINK-2473","OBJECT_ID":"2021-027AR","EPOCH":"2026-03-08T14:46:00.743232","MEAN_MOTION":15.06399874,"ECCENTRICITY":0.00014719,"INCLINATION":53.0552,"RA_OF_ASC_NODE":156.4441,"ARG_OF_PERICENTER":103.0994,"MEAN_ANOMALY":257.016,"EPHEMERIS_TYPE":0,"CLASSIFICATION_TYPE":"U","NORAD_CAT_ID":48131,"ELEMENT_SET_NO":999,"REV_AT_EPOCH":27253,"BSTAR":3.8482686e-5,"MEAN_MOTION_DOT":2.92e-6,"MEAN_MOTION_DDOT":0},{"OBJECT_NAME":"CZ-6A DEB","OBJECT_ID":"2024-140FD","EPOCH":"2026-03-09T14:27:44.906112","MEAN_MOTION":14.99694865,"ECCENTRICITY":0.0039811,"INCLINATION":89.0027,"RA_OF_ASC_NODE":280.8171,"ARG_OF_PERICENTER":188.2594,"MEAN_ANOMALY":171.7991,"EPHEMERIS_TYPE":0,"CLASSIFICATION_TYPE":"U","NORAD_CAT_ID":60778,"ELEMENT_SET_NO":999,"REV_AT_EPOCH":8450,"BSTAR":0.0048584,"MEAN_MOTION_DOT":0.00061368,"MEAN_MOTION_DDOT":0}]
